{
  "type": "FeatureCollection",
  "features": [
    {
      "type": "Feature",
      "properties": {
        "norad_id": 37238,
        "name": "INTELSAT 17 (IS-17)",
        "group": "intelsat",
        "lat": -0.019673478699747216,
        "lon": -100.2896658569601,
        "alt_km": 35775.519737026065,
        "timestamp": "2025-12-09T07:41:32.871154+00:00",
        "meta_object_name": "INTELSAT 17 (IS-17)",
        "meta_object_id": "2010-065B",
        "meta_epoch": "2025-12-08T22:34:38.601120",
        "meta_mean_motion": 1.00271715,
        "meta_eccentricity": 0.00025004,
        "meta_inclination": 0.0162,
        "meta_ra_of_asc_node": 282.4761,
        "meta_arg_of_pericenter": 333.8384,
        "meta_mean_anomaly": 226.2973,
        "meta_ephemeris_type": 0,
        "meta_classification_type": "U",
        "meta_norad_cat_id": 37238,
        "meta_element_set_no": 999,
        "meta_rev_at_epoch": 5134,
        "meta_bstar": 0,
        "meta_mean_motion_dot": 0,
        "meta_mean_motion_ddot": 0,
        "tle_line1": "1 37238U 10065B   25342.94072455  .00000000  00000+0  00000+0 0  9995",
        "tle_line2": "2 37238   0.0162 282.4761 0002500 333.8384 226.2973  1.00271715 51341"
      },
      "geometry": {
        "type": "Point",
        "coordinates": [
          -100.2896658569601,
          -0.019673478699747216
        ]
      }
    },
    {
      "type": "Feature",
      "properties": {
        "norad_id": 37392,
        "name": "INTELSAT 28 (IS-28)",
        "group": "intelsat",
        "lat": 1.282270810369205,
        "lon": 161.9487416061633,
        "alt_km": 35789.07615579008,
        "timestamp": "2025-12-09T07:41:32.871166+00:00",
        "meta_object_name": "INTELSAT 28 (IS-28)",
        "meta_object_id": "2011-016A",
        "meta_epoch": "2025-12-08T22:00:53.156160",
        "meta_mean_motion": 1.00272302,
        "meta_eccentricity": 0.00040046,
        "meta_inclination": 1.3147,
        "meta_ra_of_asc_node": 85.1001,
        "meta_arg_of_pericenter": 178.024,
        "meta_mean_anomaly": 113.3112,
        "meta_ephemeris_type": 0,
        "meta_classification_type": "U",
        "meta_norad_cat_id": 37392,
        "meta_element_set_no": 999,
        "meta_rev_at_epoch": 5137,
        "meta_bstar": 0,
        "meta_mean_motion_dot": -2.23e-06,
        "meta_mean_motion_ddot": 0,
        "tle_line1": "1 37392U 11016A   25342.91728190 -.00000223  00000+0  00000+0 0  9992",
        "tle_line2": "2 37392   1.3147  85.1001 0004004 178.0240 113.3112  1.00272302 51372"
      },
      "geometry": {
        "type": "Point",
        "coordinates": [
          161.9487416061633,
          1.282270810369205
        ]
      }
    },
    {
      "type": "Feature",
      "properties": {
        "norad_id": 37834,
        "name": "INTELSAT 18 (IS-18)",
        "group": "intelsat",
        "lat": 0.020238362228572882,
        "lon": 13.71542862103302,
        "alt_km": 35789.385875793654,
        "timestamp": "2025-12-09T07:41:32.871177+00:00",
        "meta_object_name": "INTELSAT 18 (IS-18)",
        "meta_object_id": "2011-056A",
        "meta_epoch": "2025-12-08T19:35:48.907392",
        "meta_mean_motion": 1.00271076,
        "meta_eccentricity": 0.00020866,
        "meta_inclination": 0.0163,
        "meta_ra_of_asc_node": 339.8091,
        "meta_arg_of_pericenter": 283.0616,
        "meta_mean_anomaly": 288.8971,
        "meta_ephemeris_type": 0,
        "meta_classification_type": "U",
        "meta_norad_cat_id": 37834,
        "meta_element_set_no": 999,
        "meta_rev_at_epoch": 5190,
        "meta_bstar": 0,
        "meta_mean_motion_dot": 5.5e-07,
        "meta_mean_motion_ddot": 0,
        "tle_line1": "1 37834U 11056A   25342.81653828  .00000055  00000+0  00000+0 0  9993",
        "tle_line2": "2 37834   0.0163 339.8091 0002086 283.0616 288.8971  1.00271076 51904"
      },
      "geometry": {
        "type": "Point",
        "coordinates": [
          13.71542862103302,
          0.020238362228572882
        ]
      }
    },
    {
      "type": "Feature",
      "properties": {
        "norad_id": 38098,
        "name": "INTELSAT 22 (IS-22)",
        "group": "intelsat",
        "lat": -0.03041426617968739,
        "lon": -94.18567113500207,
        "alt_km": 35778.91966121562,
        "timestamp": "2025-12-09T07:41:32.871190+00:00",
        "meta_object_name": "INTELSAT 22 (IS-22)",
        "meta_object_id": "2012-011A",
        "meta_epoch": "2025-12-08T23:20:38.624928",
        "meta_mean_motion": 1.00274102,
        "meta_eccentricity": 0.00015396,
        "meta_inclination": 0.0193,
        "meta_ra_of_asc_node": 310.404,
        "meta_arg_of_pericenter": 313.6812,
        "meta_mean_anomaly": 236.1604,
        "meta_ephemeris_type": 0,
        "meta_classification_type": "U",
        "meta_norad_cat_id": 38098,
        "meta_element_set_no": 999,
        "meta_rev_at_epoch": 528,
        "meta_bstar": 0,
        "meta_mean_motion_dot": -5.7e-07,
        "meta_mean_motion_ddot": 0,
        "tle_line1": "1 38098U 12011A   25342.97266927 -.00000057  00000+0  00000+0 0  9998",
        "tle_line2": "2 38098   0.0193 310.4040 0001539 313.6812 236.1604  1.00274102  5281"
      },
      "geometry": {
        "type": "Point",
        "coordinates": [
          -94.18567113500207,
          -0.03041426617968739
        ]
      }
    },
    {
      "type": "Feature",
      "properties": {
        "norad_id": 38356,
        "name": "INTELSAT 19 (IS-19)",
        "group": "intelsat",
        "lat": 0.012110251824190264,
        "lon": -0.2585850970989863,
        "alt_km": 35787.28158729691,
        "timestamp": "2025-12-09T07:41:32.871202+00:00",
        "meta_object_name": "INTELSAT 19 (IS-19)",
        "meta_object_id": "2012-030A",
        "meta_epoch": "2025-12-08T20:03:38.651328",
        "meta_mean_motion": 1.00271529,
        "meta_eccentricity": 0.00035541,
        "meta_inclination": 0.0098,
        "meta_ra_of_asc_node": 331.8017,
        "meta_arg_of_pericenter": 293.6359,
        "meta_mean_anomaly": 279.3134,
        "meta_ephemeris_type": 0,
        "meta_classification_type": "U",
        "meta_norad_cat_id": 38356,
        "meta_element_set_no": 999,
        "meta_rev_at_epoch": 4854,
        "meta_bstar": 0,
        "meta_mean_motion_dot": -5.4e-07,
        "meta_mean_motion_ddot": 0,
        "tle_line1": "1 38356U 12030A   25342.83586402 -.00000054  00000+0  00000+0 0  9991",
        "tle_line2": "2 38356   0.0098 331.8017 0003554 293.6359 279.3134  1.00271529 48548"
      },
      "geometry": {
        "type": "Point",
        "coordinates": [
          -0.2585850970989863,
          0.012110251824190264
        ]
      }
    },
    {
      "type": "Feature",
      "properties": {
        "norad_id": 38740,
        "name": "INTELSAT 20 (IS-20)",
        "group": "intelsat",
        "lat": -0.00033286730123780834,
        "lon": -97.76405551379244,
        "alt_km": 35784.41275547182,
        "timestamp": "2025-12-09T07:41:32.871213+00:00",
        "meta_object_name": "INTELSAT 20 (IS-20)",
        "meta_object_id": "2012-043A",
        "meta_epoch": "2025-12-08T23:28:38.588160",
        "meta_mean_motion": 1.00270082,
        "meta_eccentricity": 0.00026935,
        "meta_inclination": 0.0056,
        "meta_ra_of_asc_node": 88.8625,
        "meta_arg_of_pericenter": 94.1277,
        "meta_mean_anomaly": 315.6576,
        "meta_ephemeris_type": 0,
        "meta_classification_type": "U",
        "meta_norad_cat_id": 38740,
        "meta_element_set_no": 999,
        "meta_rev_at_epoch": 4884,
        "meta_bstar": 0,
        "meta_mean_motion_dot": -2.2e-07,
        "meta_mean_motion_ddot": 0,
        "tle_line1": "1 38740U 12043A   25342.97822440 -.00000022  00000+0  00000+0 0  9997",
        "tle_line2": "2 38740   0.0056  88.8625 0002693  94.1277 315.6576  1.00270082 48849"
      },
      "geometry": {
        "type": "Point",
        "coordinates": [
          -97.76405551379244,
          -0.00033286730123780834
        ]
      }
    },
    {
      "type": "Feature",
      "properties": {
        "norad_id": 38749,
        "name": "INTELSAT 21 (IS-21)",
        "group": "intelsat",
        "lat": 0.02261406756547298,
        "lon": 135.67692238007467,
        "alt_km": 35790.95249133478,
        "timestamp": "2025-12-09T07:41:32.871247+00:00",
        "meta_object_name": "INTELSAT 21 (IS-21)",
        "meta_object_id": "2012-045A",
        "meta_epoch": "2025-12-08T21:53:16.386144",
        "meta_mean_motion": 1.00270541,
        "meta_eccentricity": 0.00021836,
        "meta_inclination": 0.0131,
        "meta_ra_of_asc_node": 17.8332,
        "meta_arg_of_pericenter": 236.7664,
        "meta_mean_anomaly": 93.6334,
        "meta_ephemeris_type": 0,
        "meta_classification_type": "U",
        "meta_norad_cat_id": 38749,
        "meta_element_set_no": 999,
        "meta_rev_at_epoch": 4861,
        "meta_bstar": 0,
        "meta_mean_motion_dot": -2.83e-06,
        "meta_mean_motion_ddot": 0,
        "tle_line1": "1 38749U 12045A   25342.91199521 -.00000283  00000+0  00000+0 0  9998",
        "tle_line2": "2 38749   0.0131  17.8332 0002183 236.7664  93.6334  1.00270541 48617"
      },
      "geometry": {
        "type": "Point",
        "coordinates": [
          135.67692238007467,
          0.02261406756547298
        ]
      }
    }
  ]
}